[{"OBJECT_NAME":"STARLINK-35220","OBJECT_ID":"2025-211K","EPOCH":"2026-03-09T16:48:09.392544","MEAN_MOTION":15.05653544,"ECCENTRICITY":9.4e-5,"INCLINATION":97.6021,"RA_OF_ASC_NODE":114.0797,"ARG_OF_PERICENTER":113.0996,"MEAN_ANOMALY":247.033,"EPHEMERIS_TYPE":0,"CLASSIFICATION_TYPE":"U","NORAD_CAT_ID":65661,"ELEMENT_SET_NO":999,"REV_AT_EPOCH":2704,"BSTAR":0.00018175142,"MEAN_MOTION_DOT":2.563e-5,"MEAN_MOTION_DDOT":0},{"OBJECT_NAME":"CZ-6A DEB","OBJECT_ID":"2024-140TY","EPOCH":"2026-03-09T15:25:48.532512","MEAN_MOTION":14.77098477,"ECCENTRICITY":0.0162256,"INCLINATION":89.1158,"RA_OF_ASC_NODE":288.8548,"ARG_OF_PERICENTER":182.348,"MEAN_ANOMALY":177.7001,"EPHEMERIS_TYPE":0,"CLASSIFICATION_TYPE":"U","NORAD_CAT_ID":61311,"ELEMENT_SET_NO":999,"REV_AT_EPOCH":8223,"BSTAR":0.00066942,"MEAN_MOTION_DOT":5.907e-5,"MEAN_MOTION_DDOT":0}]
